parent,parent_genes,parent_pval_FISH,parent_pval_BIN,parent_n,parent_pct,child,child_genes,child_pval_FISH,child_pval_BIN,child_n,child_pct,parent_adj_pval_BIN-BF,parent_adj_pval_FISH-BF,parent_adj_pval_BIN-BH,parent_adj_pval_FISH-BH,child_adj_pval_BIN-BF,child_adj_pval_FISH-BF,child_adj_pval_BIN-BH,child_adj_pval_FISH-BH,parent_name,child_name,cell,source
GO:0060090,"['LETMD1', 'TNRC6A']",0.013974547208931374,0.014021217794419191,2,0.043478260869565216,GO:0030674,"['SLMAP', 'TNRC6A', 'CRADD', 'SRRT']",3.221632322606053e-05,3.298179231302788e-05,4,0.08695652173913043,0.5187850583935101,0.5170582467304609,0.014410696066486392,0.014362729075846134,0.0012203263155820315,0.0011920039593642396,0.0012203263155820315,0.0011920039593642396,MF : molecular adaptor activity,MF : protein-macromolecule adaptor activity,STRIATUM_1 # s1,GO-TERM
GO:0032991,"['CLU', 'SNX4', 'HSP90AA1', 'SRRT', 'CHEK1', 'PPP3CB']",9.378221986837156e-05,9.491804568677221e-05,6,0.13043478260869565,GO:0000808,['ORC6'],0.004586423975217643,0.004584709562584898,1,0.021739130434782608,0.003511967690410572,0.003469942135129748,0.0001526942474091553,0.0001508670493534673,0.16963425381564123,0.16969768708305277,0.013048788755049326,0.013053668237157905,CC : protein-containing complex,CC : origin recognition complex,STRIATUM_1 # s1,GO-TERM
GO:0032991,"['CLU', 'SNX4', 'HSP90AA1', 'SRRT', 'CHEK1', 'PPP3CB']",9.378221986837156e-05,9.491804568677221e-05,6,0.13043478260869565,GO:0097226,['HSP90AA1'],0.005348824689467629,0.005346826039763141,1,0.021739130434782608,0.003511967690410572,0.003469942135129748,0.0001350756804004066,0.0001334593128896057,0.19783256347123623,0.19790651351030228,0.013188837564749083,0.013193767567353486,CC : protein-containing complex,CC : sperm mitochondrial sheath,STRIATUM_1 # s1,GO-TERM
GO:0032991,"['CLU', 'SNX4', 'HSP90AA1', 'SRRT', 'CHEK1', 'PPP3CB']",9.378221986837156e-05,9.491804568677221e-05,6,0.13043478260869565,GO:0008287,['PPP3CB'],0.006110654155388648,0.006108371695462949,1,0.021739130434782608,0.003511967690410572,0.003469942135129748,0.0007023935380821144,0.0006939884270259495,0.22600975273212912,0.22609420374938,0.013294691337184066,0.013299659044081176,CC : protein-containing complex,CC : protein serine/threonine phosphatase complex,STRIATUM_1 # s1,GO-TERM
GO:0032991,"['CLU', 'SNX4', 'HSP90AA1', 'SRRT', 'CHEK1', 'PPP3CB']",9.378221986837156e-05,9.491804568677221e-05,6,0.13043478260869565,GO:0005664,['ORC6'],0.006110654155388648,0.006108371695462949,1,0.021739130434782608,0.003511967690410572,0.003469942135129748,0.00014047870761642287,0.00013879768540518993,0.22600975273212912,0.22609420374938,0.01412560954575807,0.01413088773433625,CC : protein-containing complex,CC : nuclear origin of replication recognition complex,STRIATUM_1 # s1,GO-TERM
GO:0032991,"['CLU', 'SNX4', 'HSP90AA1', 'SRRT', 'CHEK1', 'PPP3CB']",9.378221986837156e-05,9.491804568677221e-05,6,0.13043478260869565,GO:0031428,['FBL'],0.005348824689467629,0.005346826039763141,1,0.021739130434782608,0.003511967690410572,0.003469942135129748,0.0003511967690410572,0.00034699421351297476,0.19783256347123623,0.19790651351030228,0.014130897390802588,0.014136179536450163,CC : protein-containing complex,CC : box C/D methylation guide snoRNP complex,STRIATUM_1 # s1,GO-TERM
GO:0032991,"['CLU', 'SNX4', 'HSP90AA1', 'SRRT', 'CHEK1', 'PPP3CB']",9.378221986837156e-05,9.491804568677221e-05,6,0.13043478260869565,GO:0032983,['GRIK3'],0.004586423975217643,0.004584709562584898,1,0.021739130434782608,0.003511967690410572,0.003469942135129748,0.000877991922602643,0.000867485533782437,0.16963425381564123,0.16969768708305277,0.014136187817970103,0.01414147392358773,CC : protein-containing complex,CC : kainate selective glutamate receptor complex,STRIATUM_1 # s1,GO-TERM
GO:0032991,"['CLU', 'SNX4', 'HSP90AA1', 'SRRT', 'CHEK1', 'PPP3CB']",9.378221986837156e-05,9.491804568677221e-05,6,0.13043478260869565,GO:0032777,['EPC2'],0.0030599071261598137,0.0030587624701018685,1,0.021739130434782608,0.003511967690410572,0.003469942135129748,0.001755983845205286,0.001734971067564874,0.11317421139376914,0.1132165636679131,0.014146776424221142,0.014152070458489138,CC : protein-containing complex,CC : piccolo histone acetyltransferase complex,STRIATUM_1 # s1,GO-TERM
GO:0032991,"['CLU', 'SNX4', 'HSP90AA1', 'SRRT', 'CHEK1', 'PPP3CB']",9.378221986837156e-05,9.491804568677221e-05,6,0.13043478260869565,GO:0070176,['LIN52'],0.0007658370099059353,0.0007655502018491562,1,0.021739130434782608,0.003511967690410572,0.003469942135129748,0.0004389959613013215,0.0004337427668912185,0.028325357468418782,0.02833596936651961,0.014162678734209391,0.014167984683259804,CC : protein-containing complex,CC : DRM complex,STRIATUM_1 # s1,GO-TERM
GO:0032991,"['CLU', 'SNX4', 'HSP90AA1', 'SRRT', 'CHEK1', 'PPP3CB']",9.378221986837156e-05,9.491804568677221e-05,6,0.13043478260869565,GO:0005955,['PPP3CB'],0.004586423975217643,0.004584709562584898,1,0.021739130434782608,0.003511967690410572,0.003469942135129748,0.0001755983845205286,0.00017349710675648738,0.16963425381564123,0.16969768708305277,0.01542129580142193,0.015427062462095707,CC : protein-containing complex,CC : calcineurin complex,STRIATUM_1 # s1,GO-TERM
GO:0032991,"['CLU', 'SNX4', 'HSP90AA1', 'SRRT', 'CHEK1', 'PPP3CB']",9.378221986837156e-05,9.491804568677221e-05,6,0.13043478260869565,GO:0034366,['CLU'],0.0076326010160155154,0.007629752214321987,1,0.021739130434782608,0.003511967690410572,0.003469942135129748,0.00021949798065066075,0.00021687138344560924,0.2823008319299135,0.28240623759257405,0.015683379551661863,0.01568923542180967,CC : protein-containing complex,CC : spherical high-density lipoprotein particle,STRIATUM_1 # s1,GO-TERM
GO:0032991,"['CLU', 'SNX4', 'HSP90AA1', 'SRRT', 'CHEK1', 'PPP3CB']",9.378221986837156e-05,9.491804568677221e-05,6,0.13043478260869565,GO:0016011,['SGCB'],0.003823451593820969,0.0038220218455803185,1,0.021739130434782608,0.003511967690410572,0.003469942135129748,0.00019510931613392067,0.00019277456306276378,0.1414148082864718,0.14146770897137584,0.015712756476274643,0.015718634330152872,CC : protein-containing complex,CC : dystroglycan complex,STRIATUM_1 # s1,GO-TERM
GO:0032991,"['CLU', 'SNX4', 'HSP90AA1', 'SRRT', 'CHEK1', 'PPP3CB']",9.378221986837156e-05,9.491804568677221e-05,6,0.13043478260869565,GO:0035517,['ASXL1'],0.0030599071261598137,0.0030587624701018685,1,0.021739130434782608,0.003511967690410572,0.003469942135129748,0.00031926979003732474,0.00031544928501179523,0.11317421139376914,0.1132165636679131,0.01616774448482416,0.016173794809701873,CC : protein-containing complex,CC : PR-DUB complex,STRIATUM_1 # s1,GO-TERM
GO:0032991,"['CLU', 'SNX4', 'HSP90AA1', 'SRRT', 'CHEK1', 'PPP3CB']",9.378221986837156e-05,9.491804568677221e-05,6,0.13043478260869565,GO:0016012,['SGCB'],0.004586423975217643,0.004584709562584898,1,0.021739130434782608,0.003511967690410572,0.003469942135129748,0.0005017096700586531,0.0004957060193042497,0.16963425381564123,0.16969768708305277,0.016963425381564125,0.01696976870830528,CC : protein-containing complex,CC : sarcoglycan complex,STRIATUM_1 # s1,GO-TERM
GO:0032991,"['CLU', 'SNX4', 'HSP90AA1', 'SRRT', 'CHEK1', 'PPP3CB']",9.378221986837156e-05,9.491804568677221e-05,6,0.13043478260869565,GO:1905369,['CRADD'],0.0022957901528160955,0.0022949310172021807,1,0.021739130434782608,0.003511967690410572,0.003469942135129748,0.00013007287742261377,0.00012851637537517584,0.08491244763648069,0.08494423565419554,0.016982489527296137,0.01698884713083911,CC : protein-containing complex,CC : endopeptidase complex,STRIATUM_1 # s1,GO-TERM
GO:0032991,"['CLU', 'SNX4', 'HSP90AA1', 'SRRT', 'CHEK1', 'PPP3CB']",9.378221986837156e-05,9.491804568677221e-05,6,0.13043478260869565,GO:0000444,['DSN1'],0.0030599071261598137,0.0030587624701018685,1,0.021739130434782608,0.003511967690410572,0.003469942135129748,0.000585327948401762,0.0005783236891882913,0.11317421139376914,0.1132165636679131,0.01886236856562819,0.018869427277985518,CC : protein-containing complex,CC : MIS12/MIND type complex,STRIATUM_1 # s1,GO-TERM
GO:0032991,"['CLU', 'SNX4', 'HSP90AA1', 'SRRT', 'CHEK1', 'PPP3CB']",9.378221986837156e-05,9.491804568677221e-05,6,0.13043478260869565,GO:0032040,"['KRR1', 'FBL']",0.0016185509258687485,0.0016382434324428495,2,0.043478260869565216,0.003511967690410572,0.003469942135129748,0.00012110233415208868,0.00011965317707343958,0.06061500700038543,0.059886384257143696,0.02020500233346181,0.019962128085714567,CC : protein-containing complex,CC : small-subunit processome,STRIATUM_1 # s1,GO-TERM
GO:0032991,"['CLU', 'SNX4', 'HSP90AA1', 'SRRT', 'CHEK1', 'PPP3CB']",9.378221986837156e-05,9.491804568677221e-05,6,0.13043478260869565,GO:0035868,['HMGB1'],0.0022957901528160955,0.0022949310172021807,1,0.021739130434782608,0.003511967690410572,0.003469942135129748,0.00015963489501866237,0.00015772464250589762,0.08491244763648069,0.08494423565419554,0.021228111909120172,0.021236058913548884,CC : protein-containing complex,CC : alphav-beta3 integrin-HMGB1 complex,STRIATUM_1 # s1,GO-TERM
GO:0032991,"['CLU', 'SNX4', 'HSP90AA1', 'SRRT', 'CHEK1', 'PPP3CB']",9.378221986837156e-05,9.491804568677221e-05,6,0.13043478260869565,GO:0090443,['SLMAP'],0.012941482130528889,0.012936664509588788,1,0.021739130434782608,0.003511967690410572,0.003469942135129748,0.00020658633473003365,0.00020411424324292635,0.4786565868547852,0.4788348388295689,0.022793170802608818,0.022801658991884233,CC : protein-containing complex,CC : FAR/SIN/STRIPAK complex,STRIATUM_1 # s1,GO-TERM
GO:0060090,"['LETMD1', 'TNRC6A']",0.013974547208931374,0.014021217794419191,2,0.043478260869565216,GO:0003714,"['LMO4', 'HMGB1']",0.014087696294618632,0.014134489323155221,2,0.043478260869565216,0.5187850583935101,0.5170582467304609,0.015720759345257882,0.015668431719104873,0.5229761049567432,0.5212447629008894,0.023771641134397416,0.023692943768222244,MF : molecular adaptor activity,MF : transcription corepressor activity,STRIATUM_1 # s1,GO-TERM
GO:0060090,"['LETMD1', 'TNRC6A']",0.013974547208931374,0.014021217794419191,2,0.043478260869565216,GO:0140767,['HSP90AA1'],0.012184775102180388,0.012180237470874423,1,0.021739130434782608,0.5187850583935101,0.5170582467304609,0.014822430239814574,0.014773092763727453,0.45066878642235364,0.45083667878067435,0.023719409811702823,0.02372824625161444,MF : molecular adaptor activity,MF : enzyme-substrate adaptor activity,STRIATUM_1 # s1,GO-TERM
GO:0032991,"['CLU', 'SNX4', 'HSP90AA1', 'SRRT', 'CHEK1', 'PPP3CB']",9.378221986837156e-05,9.491804568677221e-05,6,0.13043478260869565,GO:0016010,['SGCB'],0.012941482130528889,0.012936664509588788,1,0.021739130434782608,0.003511967690410572,0.003469942135129748,0.0001132892803358249,0.00011193361726224993,0.4786565868547852,0.4788348388295689,0.02393282934273926,0.023941741941478446,CC : protein-containing complex,CC : dystrophin-associated glycoprotein complex,STRIATUM_1 # s1,GO-TERM
GO:0032991,"['CLU', 'SNX4', 'HSP90AA1', 'SRRT', 'CHEK1', 'PPP3CB']",9.378221986837156e-05,9.491804568677221e-05,6,0.13043478260869565,GO:0032039,['INTS8'],0.015962643631642376,0.015956710269288913,1,0.021739130434782608,0.003511967690410572,0.003469942135129748,0.00025085483502932656,0.00024785300965212483,0.5903982799636898,0.5906178143707679,0.025669490433203903,0.02567903540742469,CC : protein-containing complex,CC : integrator complex,STRIATUM_1 # s1,GO-TERM
GO:0032991,"['CLU', 'SNX4', 'HSP90AA1', 'SRRT', 'CHEK1', 'PPP3CB']",9.378221986837156e-05,9.491804568677221e-05,6,0.13043478260869565,GO:0000940,['DSN1'],0.01746983022497383,0.01746334151568987,1,0.021739130434782608,0.003511967690410572,0.003469942135129748,0.003511967690410572,0.003469942135129748,0.6461436360805252,0.6463837183240317,0.026922651503355214,0.026932654930167988,CC : protein-containing complex,CC : outer kinetochore,STRIATUM_1 # s1,GO-TERM
GO:0032991,"['CLU', 'SNX4', 'HSP90AA1', 'SRRT', 'CHEK1', 'PPP3CB']",9.378221986837156e-05,9.491804568677221e-05,6,0.13043478260869565,GO:0005868,['SNX4'],0.01972637673946144,0.0197190581540841,1,0.021739130434782608,0.003511967690410572,0.003469942135129748,0.0002341311793607048,0.00023132947567531653,0.7296051517011117,0.7298759393600733,0.02918420606804447,0.029195037574402935,CC : protein-containing complex,CC : cytoplasmic dynein complex,STRIATUM_1 # s1,GO-TERM
GO:0060090,"['LETMD1', 'TNRC6A']",0.013974547208931374,0.014021217794419191,2,0.043478260869565216,GO:0003713,"['ASXL1', 'HMGB1']",0.024812742297259435,0.02486781472668966,2,0.043478260869565216,0.5187850583935101,0.5170582467304609,0.015258384070397354,0.015207595492072378,0.9201091448875174,0.918071464998599,0.03538881326490451,0.03531044096148458,MF : molecular adaptor activity,MF : transcription coactivator activity,STRIATUM_1 # s1,GO-TERM
GO:0032991,"['CLU', 'SNX4', 'HSP90AA1', 'SRRT', 'CHEK1', 'PPP3CB']",9.378221986837156e-05,9.491804568677221e-05,6,0.13043478260869565,GO:0035267,['EPC2'],0.02646564003876665,0.026455854347907145,1,0.021739130434782608,0.003511967690410572,0.003469942135129748,0.00010974899032533037,0.00010843569172280462,0.9788666108725643,0.9792286814343661,0.036254318921206084,0.03626772894201356,CC : protein-containing complex,CC : NuA4 histone acetyltransferase complex,STRIATUM_1 # s1,GO-TERM
GO:0044183,['HSP90AA1'],0.0551491014232897,0.055129008093513246,1,0.021739130434782608,GO:0140662,['HSP90AA1'],0.030190068519152694,0.030178926721223482,1,0.021739130434782608,1.0,1.0,0.055129008093513246,0.0551491014232897,1.0,1.0,0.03987929602447388,0.03989401911459463,MF : protein folding chaperone,MF : ATP-dependent protein folding chaperone,STRIATUM_1 # s1,GO-TERM
GO:0032991,"['CLU', 'SNX4', 'HSP90AA1', 'SRRT', 'CHEK1', 'PPP3CB']",9.378221986837156e-05,9.491804568677221e-05,6,0.13043478260869565,GO:0031201,['SNX4'],0.039071919297408816,0.03905756471741242,1,0.021739130434782608,0.003511967690410572,0.003469942135129748,0.000292663974200881,0.00028916184459414567,1.0,1.0,0.04983206532911239,0.04985037979324573,CC : protein-containing complex,CC : SNARE complex,STRIATUM_1 # s1,GO-TERM
GO:0032991,"['WASF2', 'AKAP10', 'ANXA2', 'WNK1', 'APC', 'CREBBP']",0.004953641918830396,0.004995952709829694,6,0.061855670103092786,GO:1990904,"['STAU1', 'HNRNPK', 'HNRNPH1', 'CELF1', 'FMR1', 'MRPL41']",1.3618229695186578e-06,1.4511845422683744e-06,6,0.061855670103092786,0.6994333793761571,0.6935098686362555,0.016653175699432313,0.016512139729434654,0.0002031658359175724,0.00019065521573261208,0.0002031658359175724,0.00019065521573261208,CC : protein-containing complex,CC : ribonucleoprotein complex,STRIATUM_2 # s1,GO-TERM
GO:0032991,"['WASF2', 'AKAP10', 'ANXA2', 'WNK1', 'APC', 'CREBBP']",0.004953641918830396,0.004995952709829694,6,0.061855670103092786,GO:0000502,"['PSMD8', 'PSMD7', 'USP14', 'PSMA3']",3.317243083157366e-06,3.6429312086462273e-06,4,0.041237113402061855,0.6994333793761571,0.6935098686362555,0.02497976354914847,0.024768209594151984,0.0005100103692104719,0.00046441403164203124,0.0002550051846052359,0.00023220701582101562,CC : protein-containing complex,CC : proteasome complex,STRIATUM_2 # s1,GO-TERM
GO:0032991,"['WASF2', 'AKAP10', 'ANXA2', 'WNK1', 'APC', 'CREBBP']",0.004953641918830396,0.004995952709829694,6,0.061855670103092786,GO:0097730,"['IFT20', 'AHI1', 'PAFAH1B1']",4.47710975515049e-05,4.798647636452962e-05,3,0.030927835051546393,0.6994333793761571,0.6935098686362555,0.008742917242201964,0.008668873357953194,0.006718106691034147,0.006267953657210686,0.0016795266727585368,0.0015669884143026714,CC : protein-containing complex,CC : non-motile cilium,STRIATUM_2 # s1,GO-TERM
GO:0060090,"['CREBBP', 'ISCU']",0.05527782401393751,0.05540857520710885,2,0.020618556701030927,GO:1905599,"['HNRNPK', 'ANXA2']",3.8553702497567606e-05,4.616639238168795e-05,2,0.020618556701030927,1.0,1.0,0.05921527121370412,0.05907553711413168,0.006463294933436313,0.005397518349659465,0.002154431644478771,0.0017991727832198216,MF : molecular adaptor activity,BP : positive regulation of low-density lipoprotein receptor activity,STRIATUM_2 # s1,GO-TERM
GO:0032991,"['WASF2', 'AKAP10', 'ANXA2', 'WNK1', 'APC', 'CREBBP']",0.004953641918830396,0.004995952709829694,6,0.061855670103092786,GO:0005838,"['PSMD8', 'PSMD7']",0.00016856670965450615,0.00018350222269825048,2,0.020618556701030927,0.6994333793761571,0.6935098686362555,0.00785880201546244,0.007792245715014107,0.025690311177755068,0.02359933935163086,0.004281718529625844,0.00393322322527181,CC : protein-containing complex,CC : proteasome regulatory particle,STRIATUM_2 # s1,GO-TERM
GO:0032991,"['WASF2', 'AKAP10', 'ANXA2', 'WNK1', 'APC', 'CREBBP']",0.004953641918830396,0.004995952709829694,6,0.061855670103092786,GO:0097225,"['SLC26A3', 'PACRG', 'VDAC2']",0.00016582325731827804,0.00017315223834422544,3,0.030927835051546393,0.6994333793761571,0.6935098686362555,0.012952469988447355,0.012842775345115843,0.02424131336819156,0.023215256024558924,0.0048482626736383126,0.004643051204911785,CC : protein-containing complex,CC : sperm midpiece,STRIATUM_2 # s1,GO-TERM
GO:0032991,"['WASF2', 'AKAP10', 'ANXA2', 'WNK1', 'APC', 'CREBBP']",0.004953641918830396,0.004995952709829694,6,0.061855670103092786,GO:0036064,"['AHI1', 'KIAA0586', 'IFT20', 'CCDC66', 'ATXN10']",0.00028211377598604204,0.00028846852985828724,5,0.05154639175257732,0.6994333793761571,0.6935098686362555,0.02057156998165168,0.020397349077536927,0.04038559418016022,0.03949592863804589,0.005769370597165745,0.0056422755197208406,CC : protein-containing complex,CC : ciliary basal body,STRIATUM_2 # s1,GO-TERM
GO:0032991,"['WASF2', 'AKAP10', 'ANXA2', 'WNK1', 'APC', 'CREBBP']",0.004953641918830396,0.004995952709829694,6,0.061855670103092786,GO:0001750,"['IFT20', 'AHI1', 'CCDC66']",0.0004055429649938163,0.00041828381447551013,3,0.030927835051546393,0.6994333793761571,0.6935098686362555,0.02690128382215989,0.026673456486009828,0.05855973402657142,0.05677601509913428,0.006506637114063491,0.006308446122126031,CC : protein-containing complex,CC : photoreceptor outer segment,STRIATUM_2 # s1,GO-TERM
GO:0032991,"['WASF2', 'AKAP10', 'ANXA2', 'WNK1', 'APC', 'CREBBP']",0.004953641918830396,0.004995952709829694,6,0.061855670103092786,GO:0071004,"['LUC7L', 'SNRPG']",0.000388306198450234,0.000410280825277765,2,0.020618556701030927,0.6994333793761571,0.6935098686362555,0.01059747544509329,0.010507725282367509,0.057439315538887106,0.05436286778303276,0.007179914442360888,0.006795358472879095,CC : protein-containing complex,CC : U2-type prespliceosome,STRIATUM_2 # s1,GO-TERM
GO:0032991,"['WASF2', 'AKAP10', 'ANXA2', 'WNK1', 'APC', 'CREBBP']",0.004953641918830396,0.004995952709829694,6,0.061855670103092786,GO:0005929,"['AHI1', 'PACRG', 'IFT20', 'CCDC66', 'ATXN10']",0.0006546843328753235,0.0006662526042695473,5,0.05154639175257732,0.6994333793761571,0.6935098686362555,0.17485834484403928,0.17337746715906388,0.09327536459773661,0.0916558066025453,0.009327536459773661,0.00916558066025453,CC : protein-containing complex,CC : cilium,STRIATUM_2 # s1,GO-TERM
GO:0032991,"['WASF2', 'AKAP10', 'ANXA2', 'WNK1', 'APC', 'CREBBP']",0.004953641918830396,0.004995952709829694,6,0.061855670103092786,GO:0071013,"['HNRNPH1', 'SNRPG', 'HNRNPK']",0.0010240722695619583,0.0010463430503089629,3,0.030927835051546393,0.6994333793761571,0.6935098686362555,0.0067906153337490985,0.006733105520740345,0.1464880270432548,0.14337011773867417,0.013317093367568618,0.013033647067152198,CC : protein-containing complex,CC : catalytic step 2 spliceosome,STRIATUM_2 # s1,GO-TERM
GO:0042592,['CREBBP'],0.019209547523940294,0.019194339137489556,1,0.010309278350515464,GO:1904439,['ISCU'],0.001614917173062516,0.0016136273175172153,1,0.010309278350515464,1.0,1.0,0.022772944739394386,0.022790988587725772,0.22590782445241014,0.22608840422875223,0.017377524957877703,0.017391415709904018,BP : homeostatic process,BP : negative regulation of iron ion import across plasma membrane,STRIATUM_2 # s1,GO-TERM
GO:0032991,"['WASF2', 'AKAP10', 'ANXA2', 'WNK1', 'APC', 'CREBBP']",0.004953641918830396,0.004995952709829694,6,0.061855670103092786,GO:0005875,"['STAU1', 'PAFAH1B1']",0.0017470389990826107,0.0017905053175803032,2,0.020618556701030927,0.6994333793761571,0.6935098686362555,0.027977335175046286,0.02774039474545022,0.25067074446124243,0.2445854598715655,0.017905053175803032,0.017470389990826108,CC : protein-containing complex,CC : microtubule associated complex,STRIATUM_2 # s1,GO-TERM
GO:0032991,"['WASF2', 'AKAP10', 'ANXA2', 'WNK1', 'APC', 'CREBBP']",0.004953641918830396,0.004995952709829694,6,0.061855670103092786,GO:1990667,['ANXA2'],0.003227253231836706,0.0032246776422676753,1,0.010309278350515464,0.6994333793761571,0.6935098686362555,0.03330635139886463,0.03302427945886931,0.4514548699174745,0.45181545245713883,0.018810619579894772,0.018825643852380784,CC : protein-containing complex,CC : PCSK9-AnxA2 complex,STRIATUM_2 # s1,GO-TERM
GO:0032991,"['WASF2', 'AKAP10', 'ANXA2', 'WNK1', 'APC', 'CREBBP']",0.004953641918830396,0.004995952709829694,6,0.061855670103092786,GO:0030990,['IFT20'],0.001614917173062516,0.0016136273175172153,1,0.010309278350515464,0.6994333793761571,0.6935098686362555,0.23314445979205237,0.23116995621208516,0.22590782445241014,0.22608840422875223,0.018825652037700844,0.01884070035239602,CC : protein-containing complex,CC : intraciliary transport particle,STRIATUM_2 # s1,GO-TERM
GO:0032991,"['WASF2', 'AKAP10', 'ANXA2', 'WNK1', 'APC', 'CREBBP']",0.004953641918830396,0.004995952709829694,6,0.061855670103092786,GO:0031213,['SMARCA5'],0.003227253231836706,0.0032246776422676753,1,0.010309278350515464,0.6994333793761571,0.6935098686362555,0.07771481993068413,0.07705665207069506,0.4514548699174745,0.45181545245713883,0.019628472605107587,0.019644150106832122,CC : protein-containing complex,CC : RSF complex,STRIATUM_2 # s1,GO-TERM
GO:0032991,"['WASF2', 'AKAP10', 'ANXA2', 'WNK1', 'APC', 'CREBBP']",0.004953641918830396,0.004995952709829694,6,0.061855670103092786,GO:0045092,['IL18R1'],0.003227253231836706,0.0032246776422676753,1,0.010309278350515464,0.6994333793761571,0.6935098686362555,0.007137075299756705,0.007076631312614852,0.4514548699174745,0.45181545245713883,0.02052067590533975,0.020537066020779038,CC : protein-containing complex,CC : interleukin-18 receptor complex,STRIATUM_2 # s1,GO-TERM
GO:0042592,['CREBBP'],0.019209547523940294,0.019194339137489556,1,0.010309278350515464,GO:0055080,['WNK1'],0.004837012258800258,0.004833155046954558,1,0.010309278350515464,1.0,1.0,0.022581575455870063,0.022599467675223875,0.6766417065736381,0.6771817162320362,0.02114505333042619,0.02116192863225113,BP : homeostatic process,BP : monoatomic cation homeostasis,STRIATUM_2 # s1,GO-TERM
GO:0032991,"['WASF2', 'AKAP10', 'ANXA2', 'WNK1', 'APC', 'CREBBP']",0.004953641918830396,0.004995952709829694,6,0.061855670103092786,GO:1990665,['ANXA2'],0.003227253231836706,0.0032246776422676753,1,0.010309278350515464,0.6994333793761571,0.6935098686362555,0.006857189993883893,0.006799116359178976,0.4514548699174745,0.45181545245713883,0.021497850948451167,0.02151502154557804,CC : protein-containing complex,CC : AnxA2-p11 complex,STRIATUM_2 # s1,GO-TERM
GO:0042592,['CREBBP'],0.019209547523940294,0.019194339137489556,1,0.010309278350515464,GO:0051454,['SLC26A3'],0.004837012258800258,0.004833155046954558,1,0.010309278350515464,1.0,1.0,0.023367021558682935,0.023385536116101228,0.6766417065736381,0.6771817162320362,0.021827151824956068,0.021844571491356005,BP : homeostatic process,BP : intracellular pH elevation,STRIATUM_2 # s1,GO-TERM
GO:0048511,['CREBBP'],0.11135289084092898,0.11126897642080613,1,0.010309278350515464,GO:0001543,['NRIP1'],0.004837012258800258,0.004833155046954558,1,0.010309278350515464,1.0,1.0,0.11288157028197723,0.11296670085311636,0.6766417065736381,0.6771817162320362,0.0225547235524546,0.022572723874401204,BP : rhythmic process,BP : ovarian follicle rupture,STRIATUM_2 # s1,GO-TERM
GO:0032991,"['WASF2', 'AKAP10', 'ANXA2', 'WNK1', 'APC', 'CREBBP']",0.004953641918830396,0.004995952709829694,6,0.061855670103092786,GO:0002945,['CDK13'],0.003227253231836706,0.0032246776422676753,1,0.010309278350515464,0.6994333793761571,0.6935098686362555,0.02256236707665023,0.0223712860850405,0.4514548699174745,0.45181545245713883,0.022572743495873727,0.02259077262285694,CC : protein-containing complex,CC : cyclin K-CDK13 complex,STRIATUM_2 # s1,GO-TERM
GO:0032991,"['WASF2', 'AKAP10', 'ANXA2', 'WNK1', 'APC', 'CREBBP']",0.004953641918830396,0.004995952709829694,6,0.061855670103092786,GO:0000110,['XPA'],0.004837012258800258,0.004833155046954558,1,0.010309278350515464,0.6994333793761571,0.6935098686362555,0.014571528737003273,0.014448122263255323,0.6766417065736381,0.6771817162320362,0.023332472640470277,0.02335109366317366,CC : protein-containing complex,CC : nucleotide-excision repair factor 1 complex,STRIATUM_2 # s1,GO-TERM
GO:0032991,"['WASF2', 'AKAP10', 'ANXA2', 'WNK1', 'APC', 'CREBBP']",0.004953641918830396,0.004995952709829694,6,0.061855670103092786,GO:0090536,['SMARCA5'],0.003227253231836706,0.0032246776422676753,1,0.010309278350515464,0.6994333793761571,0.6935098686362555,0.010760513528863955,0.01066938259440393,0.4514548699174745,0.45181545245713883,0.0237607826272355,0.023779760655638887,CC : protein-containing complex,CC : NoRC complex,STRIATUM_2 # s1,GO-TERM
GO:0032991,"['WASF2', 'AKAP10', 'ANXA2', 'WNK1', 'APC', 'CREBBP']",0.004953641918830396,0.004995952709829694,6,0.061855670103092786,GO:0019908,['CDK13'],0.004837012258800258,0.004833155046954558,1,0.010309278350515464,0.6994333793761571,0.6935098686362555,0.007520789025550077,0.007457095361680167,0.6766417065736381,0.6771817162320362,0.02416577523477279,0.024185061294001293,CC : protein-containing complex,CC : nuclear cyclin-dependent protein kinase holoenzyme complex,STRIATUM_2 # s1,GO-TERM
GO:0032991,"['WASF2', 'AKAP10', 'ANXA2', 'WNK1', 'APC', 'CREBBP']",0.004953641918830396,0.004995952709829694,6,0.061855670103092786,GO:0008247,['PAFAH1B1'],0.004837012258800258,0.004833155046954558,1,0.010309278350515464,0.6994333793761571,0.6935098686362555,0.011854803040273849,0.011754404553156874,0.6766417065736381,0.6771817162320362,0.02506080394717178,0.02508080430489023,CC : protein-containing complex,CC : 1-alkyl-2-acetylglycerophosphocholine esterase complex,STRIATUM_2 # s1,GO-TERM
GO:0032991,"['WASF2', 'AKAP10', 'ANXA2', 'WNK1', 'APC', 'CREBBP']",0.004953641918830396,0.004995952709829694,6,0.061855670103092786,GO:0016590,['SMARCA5'],0.003227253231836706,0.0032246776422676753,1,0.010309278350515464,0.6994333793761571,0.6935098686362555,0.008529675358245819,0.00845743742239336,0.4514548699174745,0.45181545245713883,0.02508082610652636,0.025100858469841045,CC : protein-containing complex,CC : ACF complex,STRIATUM_2 # s1,GO-TERM
GO:0032991,"['WASF2', 'AKAP10', 'ANXA2', 'WNK1', 'APC', 'CREBBP']",0.004953641918830396,0.004995952709829694,6,0.061855670103092786,GO:1902636,['IFT20'],0.004837012258800258,0.004833155046954558,1,0.010309278350515464,0.6994333793761571,0.6935098686362555,0.01748583448440393,0.017337746715906387,0.6766417065736381,0.6771817162320362,0.026024681022063005,0.02604545062430908,CC : protein-containing complex,CC : kinociliary basal body,STRIATUM_2 # s1,GO-TERM
GO:0032991,"['WASF2', 'AKAP10', 'ANXA2', 'WNK1', 'APC', 'CREBBP']",0.004953641918830396,0.004995952709829694,6,0.061855670103092786,GO:0090537,['SMARCA5'],0.006444198330041579,0.006439063597912153,1,0.010309278350515464,0.6994333793761571,0.6935098686362555,0.011281183538325116,0.01118564304252025,0.9014689037077014,0.9021877662058211,0.02651379128552063,0.026534934300171207,CC : protein-containing complex,CC : CERF complex,STRIATUM_2 # s1,GO-TERM
GO:0032991,"['WASF2', 'AKAP10', 'ANXA2', 'WNK1', 'APC', 'CREBBP']",0.004953641918830396,0.004995952709829694,6,0.061855670103092786,GO:0031010,['SMARCA5'],0.003227253231836706,0.0032246776422676753,1,0.010309278350515464,0.6994333793761571,0.6935098686362555,0.010136715643132711,0.010050867661395008,0.4514548699174745,0.45181545245713883,0.026556168818674973,0.026577379556302284,CC : protein-containing complex,CC : ISWI-type complex,STRIATUM_2 # s1,GO-TERM
GO:0032991,"['WASF2', 'AKAP10', 'ANXA2', 'WNK1', 'APC', 'CREBBP']",0.004953641918830396,0.004995952709829694,6,0.061855670103092786,GO:0034750,['APC'],0.004837012258800258,0.004833155046954558,1,0.010309278350515464,0.6994333793761571,0.6935098686362555,0.02185729310550491,0.021672183394882985,0.6766417065736381,0.6771817162320362,0.027065668262945524,0.027087268649281446,CC : protein-containing complex,CC : Scrib-APC-beta-catenin complex,STRIATUM_2 # s1,GO-TERM
GO:0032991,"['WASF2', 'AKAP10', 'ANXA2', 'WNK1', 'APC', 'CREBBP']",0.004953641918830396,0.004995952709829694,6,0.061855670103092786,GO:0008623,['SMARCA5'],0.006444198330041579,0.006439063597912153,1,0.010309278350515464,0.6994333793761571,0.6935098686362555,0.06994333793761572,0.06935098686362555,0.9014689037077014,0.9021877662058211,0.027317239506293983,0.027339023218358214,CC : protein-containing complex,CC : CHRAC,STRIATUM_2 # s1,GO-TERM
GO:0032991,"['WASF2', 'AKAP10', 'ANXA2', 'WNK1', 'APC', 'CREBBP']",0.004953641918830396,0.004995952709829694,6,0.061855670103092786,GO:0090535,['SMARCA5'],0.003227253231836706,0.0032246776422676753,1,0.010309278350515464,0.6994333793761571,0.6935098686362555,0.012270761041686968,0.012166839800636061,0.4514548699174745,0.45181545245713883,0.028215929369842158,0.028238465778571177,CC : protein-containing complex,CC : WICH complex,STRIATUM_2 # s1,GO-TERM
GO:0060090,"['CREBBP', 'ISCU']",0.05527782401393751,0.05540857520710885,2,0.020618556701030927,GO:0140693,"['WNK1', 'FMR1']",0.0031255839534848075,0.003181467966559047,2,0.020618556701030927,1.0,1.0,0.057460744659223996,0.05732515082926852,0.4454055153182666,0.43758175348787304,0.029693701021217773,0.029172116899191535,MF : molecular adaptor activity,MF : molecular condensate scaffold activity,STRIATUM_2 # s1,GO-TERM
GO:0060090,"['CREBBP', 'ISCU']",0.05527782401393751,0.05540857520710885,2,0.020618556701030927,GO:0035591,"['DDX3X', 'FMR1']",0.008067429912180228,0.00814907060803562,2,0.020618556701030927,1.0,1.0,0.058766670674206364,0.05862799516629735,1.0,1.0,0.030834321219594236,0.030525410478519786,MF : molecular adaptor activity,MF : signaling adaptor activity,STRIATUM_2 # s1,GO-TERM
GO:0042592,['CREBBP'],0.019209547523940294,0.019194339137489556,1,0.010309278350515464,GO:0006879,"['FBXL5', 'ISCU']",0.008067429912180228,0.00814907060803562,2,0.020618556701030927,1.0,1.0,0.021327043486099505,0.021343941693266994,1.0,1.0,0.031690830142360744,0.031373338547367555,BP : homeostatic process,BP : intracellular iron ion homeostasis,STRIATUM_2 # s1,GO-TERM
GO:0032991,"['WASF2', 'AKAP10', 'ANXA2', 'WNK1', 'APC', 'CREBBP']",0.004953641918830396,0.004995952709829694,6,0.061855670103092786,GO:0099128,['ISCU'],0.008048815515269698,0.008042407355115713,1,0.010309278350515464,0.6994333793761571,0.6935098686362555,0.01043930416979339,0.010350893561735157,1.0,1.0,0.03216962942046285,0.03219526206107879,CC : protein-containing complex,CC : mitochondrial [2Fe-2S] assembly complex,STRIATUM_2 # s1,GO-TERM
GO:0032991,"['WASF2', 'AKAP10', 'ANXA2', 'WNK1', 'APC', 'CREBBP']",0.004953641918830396,0.004995952709829694,6,0.061855670103092786,GO:1990246,['SMDT1'],0.009650867877824123,0.009643190372191288,1,0.010309278350515464,0.6994333793761571,0.6935098686362555,0.012489881774574234,0.012384104797075992,1.0,1.0,0.035527543476494214,0.03555582902356256,CC : protein-containing complex,CC : uniplex complex,STRIATUM_2 # s1,GO-TERM
GO:0042592,['CREBBP'],0.019209547523940294,0.019194339137489556,1,0.010309278350515464,GO:0090461,['FMR1'],0.011250359474684724,0.011241416696425557,1,0.010309278350515464,1.0,1.0,0.023165581717659808,0.023183936666824494,1.0,1.0,0.037471388988085184,0.037501198248949076,BP : homeostatic process,BP : intracellular glutamate homeostasis,STRIATUM_2 # s1,GO-TERM
GO:0048511,['CREBBP'],0.11135289084092898,0.11126897642080613,1,0.010309278350515464,GO:0007623,"['NRIP1', 'SETX']",0.01311172214385459,0.013208562422974267,2,0.020618556701030927,1.0,1.0,0.11126897642080613,0.11135289084092898,1.0,1.0,0.038524973733674944,0.03824252291957589,BP : rhythmic process,BP : circadian rhythm,STRIATUM_2 # s1,GO-TERM
GO:0032991,"['WASF2', 'AKAP10', 'ANXA2', 'WNK1', 'APC', 'CREBBP']",0.004953641918830396,0.004995952709829694,6,0.061855670103092786,GO:0019773,['PSMA3'],0.012847294356481579,0.012837090368775637,1,0.010309278350515464,0.6994333793761571,0.6935098686362555,0.09991905419659387,0.09907283837660794,1.0,1.0,0.03823814152401254,0.03826853638100896,CC : protein-containing complex,"CC : proteasome core complex, alpha-subunit complex",STRIATUM_2 # s1,GO-TERM
GO:0032991,"['WASF2', 'AKAP10', 'ANXA2', 'WNK1', 'APC', 'CREBBP']",0.004953641918830396,0.004995952709829694,6,0.061855670103092786,GO:0097526,['SNRPG'],0.011250359474684724,0.011241416696425557,1,0.010309278350515464,0.6994333793761571,0.6935098686362555,0.013714379987767786,0.013598232718357951,1.0,1.0,0.038385325304867754,0.03841586162087467,CC : protein-containing complex,CC : spliceosomal tri-snRNP complex,STRIATUM_2 # s1,GO-TERM
GO:0032991,"['WASF2', 'AKAP10', 'ANXA2', 'WNK1', 'APC', 'CREBBP']",0.004953641918830396,0.004995952709829694,6,0.061855670103092786,GO:0072357,['PPP1R12A'],0.012847294356481579,0.012837090368775637,1,0.010309278350515464,0.6994333793761571,0.6935098686362555,0.02590493997689471,0.025685550690231686,1.0,1.0,0.039069405470186724,0.03910046108494394,CC : protein-containing complex,CC : PTW/PP1 phosphatase complex,STRIATUM_2 # s1,GO-TERM
GO:0032991,"['WASF2', 'AKAP10', 'ANXA2', 'WNK1', 'APC', 'CREBBP']",0.004953641918830396,0.004995952709829694,6,0.061855670103092786,GO:0120206,['AHI1'],0.011250359474684724,0.011241416696425557,1,0.010309278350515464,0.6994333793761571,0.6935098686362555,0.02411839239228128,0.02391413340125019,1.0,1.0,0.03934495843748945,0.03937625816139653,CC : protein-containing complex,CC : photoreceptor distal connecting cilium,STRIATUM_2 # s1,GO-TERM
GO:0032991,"['WASF2', 'AKAP10', 'ANXA2', 'WNK1', 'APC', 'CREBBP']",0.004953641918830396,0.004995952709829694,6,0.061855670103092786,GO:0110016,['SMARCA5'],0.012847294356481579,0.012837090368775637,1,0.010309278350515464,0.6994333793761571,0.6935098686362555,0.06358485267055974,0.06304635169420504,1.0,1.0,0.03993761448063531,0.03996936022016491,CC : protein-containing complex,CC : B-WICH complex,STRIATUM_2 # s1,GO-TERM
GO:0032991,"['WASF2', 'AKAP10', 'ANXA2', 'WNK1', 'APC', 'CREBBP']",0.004953641918830396,0.004995952709829694,6,0.061855670103092786,GO:0016589,['SMARCA5'],0.011250359474684724,0.011241416696425557,1,0.010309278350515464,0.6994333793761571,0.6935098686362555,0.00896709460738663,0.008891152162003277,1.0,1.0,0.0403538035256302,0.04038590580656055,CC : protein-containing complex,CC : NURF complex,STRIATUM_2 # s1,GO-TERM
GO:0032991,"['WASF2', 'AKAP10', 'ANXA2', 'WNK1', 'APC', 'CREBBP']",0.004953641918830396,0.004995952709829694,6,0.061855670103092786,GO:0070187,['TERF1'],0.014441676567504797,0.014430215423878867,1,0.010309278350515464,0.6994333793761571,0.6935098686362555,0.015542963986136825,0.015411330414139012,1.0,1.0,0.04040460318686083,0.040436694389013435,CC : protein-containing complex,CC : shelterin complex,STRIATUM_2 # s1,GO-TERM
GO:0032991,"['WASF2', 'AKAP10', 'ANXA2', 'WNK1', 'APC', 'CREBBP']",0.004953641918830396,0.004995952709829694,6,0.061855670103092786,GO:0005683,['SNRPG'],0.012847294356481579,0.012837090368775637,1,0.010309278350515464,0.6994333793761571,0.6935098686362555,0.013988667587523143,0.01387019737272511,1.0,1.0,0.04084528753701339,0.040877754770623206,CC : protein-containing complex,CC : U7 snRNP,STRIATUM_2 # s1,GO-TERM
GO:0032991,"['WASF2', 'AKAP10', 'ANXA2', 'WNK1', 'APC', 'CREBBP']",0.004953641918830396,0.004995952709829694,6,0.061855670103092786,GO:0005677,['SMARCA5'],0.017622799122749822,0.017608835789353947,1,0.010309278350515464,0.6994333793761571,0.6935098686362555,0.05828611494801309,0.05779248905302129,1.0,1.0,0.04108728350849254,0.041119864619749584,CC : protein-containing complex,CC : chromatin silencing complex,STRIATUM_2 # s1,GO-TERM
GO:0060090,"['CREBBP', 'ISCU']",0.05527782401393751,0.05540857520710885,2,0.020618556701030927,GO:0003713,"['NRIP1', 'CREBBP', 'MTDH']",0.01503082922902331,0.015124351799907426,3,0.030927835051546393,1.0,1.0,0.05788955618653164,0.05775295046232277,1.0,1.0,0.04151782847033411,0.041261099844377716,MF : molecular adaptor activity,MF : transcription coactivator activity,STRIATUM_2 # s1,GO-TERM
